#aV2023  8  1  0  0  0.00000000     288 DD+AD WGS84 FIT  NGA
## 2273 172800.00000000   300.00000000 60157 0.0000000000000
+   32     1  2  3  4  5  6  7  8  9 10 11 12 13 14 15 16 17
+         18 19 20 21 22 23 24 25 26 27 28 29 30 31 32  0  0
+          0  0  0  0  0  0  0  0  0  0  0  0  0  0  0  0  0
+          0  0  0  0  0  0  0  0  0  0  0  0  0  0  0  0  0
+          0  0  0  0  0  0  0  0  0  0  0  0  0  0  0  0  0
++         2  2  2  2  2  2  2  2  2  2  2  2  2  2  2  2  2
++         2  2  2  2  2  2  2  2  2  2  2  2  2  2  2  0  0
++         0  0  0  0  0  0  0  0  0  0  0  0  0  0  0  0  0
++         0  0  0  0  0  0  0  0  0  0  0  0  0  0  0  0  0
++         0  0  0  0  0  0  0  0  0  0  0  0  0  0  0  0  0
%c cc cc ccc ccc cccc cccc cccc cccc ccccc ccccc ccccc ccccc
%c cc cc ccc ccc cccc cccc cccc cccc ccccc ccccc ccccc ccccc
%f  0.0000000  0.000000000  0.00000000000  0.000000000000000
%f  0.0000000  0.000000000  0.00000000000  0.000000000000000
%i    0    0    0    0      0      0      0      0         0
%i    0    0    0    0      0      0      0      0         0
/*      NGA, ST. LOUIS,MO.                                  
/*   EPHEMERIS COMPUTED FROM 2 DAYS OF DATA                 
/*   EPOCHA v8 SMOOTHER                                     
/*   G2139 IERS2010 SATIGS SATAPC                           
*  2023  8  1  0  5  0.00000000
P  1 -17514.274496  -7469.171138  18320.458618    170.417467                    
V  1 -10221.133437 -21495.318926 -17867.694989     -0.016223                    
P  2 -19540.808386 -11868.394370  14152.766420   -570.322774                    
V  2  -7942.403669 -15190.491769 -24429.762940      0.040167                    
P  3 -17787.441699   4789.835230  18945.796602   -208.130633                    
V  3  11611.826141 -21439.753333  16310.677688      0.171279                    
P  4 -26567.295579   -289.280258  -1719.037950    112.134492                    
V  4  -2037.402861  -2743.333994  31640.511578      0.111765                    
P  5  10722.891397  11460.196614 -21596.528597   -137.059787                    
V  5 -13365.373129  23452.178649   5962.189478     -0.014592                    
P  6   3245.911063  23258.085448  12377.582982    571.985173                    
V  6  -8824.288973 -12982.248257  26923.998562     -0.044458                    
P  7 -11901.180244   9751.703587 -21145.206731    108.797129                    
V  7 -13985.849721 -24315.698799  -3743.565793     -0.109258                    
P  8 -24095.488461  -6611.025875  -9646.610035   -134.998919                    
V  8  12006.445787  -2367.781821 -28197.720014     -0.017396                    
P  9 -23235.899057   7492.345183 -10589.280982    -98.179395                    
V  9 -13328.589516  -2502.038979  27634.501252      0.095803                    
P 10  10171.628320 -23791.515288   5366.941806    -47.437447                    
V 10   5479.387181  -4439.346373 -31402.811477     -0.014972                    
P 11  12633.867364  23330.501848  -1671.667802   -300.546917                    
V 11  -1433.261415   3065.777664  31733.838365     -0.168112                    
P 12  17009.941944     71.144474  20102.363097   -407.495495                    
V 12 -14190.245542  21995.919812  11844.189570     -0.045491                    
P 13  17760.681426  13253.530986 -14982.594641    554.397213                    
V 13 -18618.350775  -1332.881166 -23335.057394      0.048541                    
P 14 -13047.011580  22935.796154   2129.389286    140.000717                    
V 14  -4281.713659    438.636365 -31418.387517      0.118370                    
P 15  24832.441796   3981.870338  -9396.349539     63.336028                    
V 15 -10799.696650   4349.930528 -27867.520575      0.036028                    
P 16  -6305.871760 -15668.759746 -20691.457469   -474.002150                    
V 16  16067.657208 -20079.254765  10907.302175      0.047201                    
P 17  -9280.151825  13707.839702  21225.006829    722.013290                    
V 17 -25759.838116  -2743.474552  -9585.491158      0.006665                    
P 18   9818.391826 -12423.499134 -21295.780515   -366.280900                    
V 18  13168.773327  23616.233471  -7870.580630     -0.137748                    
P 19   -293.119489  14915.714031  21774.106116    351.519008                    
V 19 -27881.308981  -3564.538749   1727.468826      0.051535                    
P 20   4502.594548  20504.979187 -16344.501409    419.650349                    
V 20  -9454.727536  18608.192722  20508.104367     -0.020268                    
P 21 -19687.029322 -14578.153689  11834.846205    151.418911                    
V 21  -6426.897254 -12421.421401 -26359.006288     -0.005396                    
P 22  -3485.331572 -15547.651915  21725.451204    520.751941                    
V 22  26388.417377   2368.413519   5902.493774      0.052832                    
P 23  16578.909394 -19350.946216  -7176.596854     49.654352                    
V 23  -2442.362519   9130.211980 -30401.873484      0.044489                    
P 24  19768.085433  10480.537751  14254.333647   -275.751686                    
V 24   8288.692262  16886.462722 -22891.960474     -0.118666                    
P 25  18536.267138 -13583.485286  12770.945677    459.516134                    
V 25  -6158.168424  15919.353430  25515.409246      0.022580                    
P 26    947.548360 -23003.484549 -13056.205192    234.609108                    
V 26  10376.250341 -13322.142884  24791.715821     -0.013333                    
P 27 -14883.509982 -12864.043255 -18286.446016    -13.803882                    
V 27  22558.609440   -786.883470 -17655.513345     -0.069717                    
P 28  -2339.334768 -22624.594147  13697.195041     79.668093                    
V 28  10795.696793  13852.698863  24684.736514     -0.024990                    
P 29  24222.352360  -4507.478026 -10105.115951   -606.837508                    
V 29  12450.307927   3209.637959  28454.475458     -0.008503                    
P 30  -4903.355925  18750.082482 -17927.320198   -500.036649                    
V 30 -12901.850894 -19386.067610 -16895.816833      0.029418                    
P 31  -9747.130946 -24172.466244   3557.740133   -221.065221                    
V 31   5210.400869   2694.864945  31446.276167     -0.006823                    
P 32   4830.938716 -15003.254355  21536.971913   -532.145208                    
V 32  26937.169295    894.793688  -5660.802652     -0.072157                    
EOF
